FENGYUN 1C DEB          
1 32112U 99025CRE 17342.24897189  .00005360  00000-0  54730-3 0  9995
2 32112  98.6274 128.5413 0130937 256.0825 102.5795 14.84910802553191
